SPACEBEE-4              
1 43139U 18004AE  22116.45459923  .00045835  00000+0  11634-2 0  9997
2 43139  97.3869 199.9796 0007068 166.3583 193.7855 15.39503070238832
SPACEBEE-3              
1 43140U 18004AF  22117.19122246  .00074165  00000+0  15154-2 0  9995
2 43140  97.3910 203.7884 0006063 166.9534 193.1873 15.45877586239129
SPACEBEE-2              
1 43141U 18004AG  22116.84771334  .00098577  00000+0  18377-2 0  9998
2 43141  97.3936 204.6311 0005300 172.9998 187.1327 15.48447021239135
SPACEBEE-1              
1 43142U 18004AH  22116.87097266  .00124477  00000+0  20385-2 0  9998
2 43142  97.3943 205.9440 0004734 178.2215 181.9055 15.52033295239209
SPACEBEE-7              
1 43816U 18099BL  22117.15056781  .00004745  00000+0  41396-3 0  9990
2 43816  97.6305 186.5584 0014697  70.9738 289.3075 14.97226908184973
SPACEBEE-5              
1 43817U 18099BM  22117.18996866  .00011212  00000+0  90258-3 0  9999
2 43817  97.6395 189.1320 0011338  75.3221 284.9259 15.00071803185080
SPACEBEE-6              
1 43818U 18099BN  22116.87183005  .00007613  00000+0  64716-3 0  9998
2 43818  97.6330 187.0509 0014295  72.3037 287.9745 14.98050148185115
SPACEBEE-21             
1 46300U 20061AE  22117.17348106  .00019802  00000+0  10055-2 0  9997
2 46300  97.4540 190.0649 0001286  91.7609 268.3772 15.16932803 90756
SPACEBEE-20             
1 46301U 20061AF  22116.18190424  .00018318  00000+0  93183-3 0  9991
2 46301  97.4560 189.1579 0001319  85.9878 274.1506 15.16885916 90606
SPACEBEE-15             
1 46302U 20061AG  22116.43659945  .00020598  00000+0  10270-2 0  9996
2 46302  97.4543 189.5252 0001196 106.8093 253.3272 15.17565054 90658
SPACEBEE-19             
1 46303U 20061AH  22116.47929536  .00019696  00000+0  99302-3 0  9998
2 46303  97.4543 189.4811 0001220  94.6518 265.4855 15.17183692 90658
SPACEBEE-18             
1 46304U 20061AJ  22116.48493188  .00020117  00000+0  10158-2 0  9990
2 46304  97.4542 189.4637 0001201  99.3790 260.7579 15.17124975 90657
SPACEBEE-10             
1 46305U 20061AK  22117.16640344  .00027472  00000+0  13211-2 0  9999
2 46305  97.4552 190.5803 0001090 113.4315 246.7033 15.18765890 90785
SPACEBEE-17             
1 46306U 20061AL  22116.51130629  .00019289  00000+0  96462-3 0  9995
2 46306  97.4545 189.5966 0001199 102.9185 257.2182 15.17474356 90701
SPACEBEE-11             
1 46307U 20061AM  22117.14825897  .00026270  00000+0  12808-2 0  9993
2 46307  97.4550 190.4404 0001112 110.2126 249.9227 15.18296357 90777
SPACEBEE-16             
1 46308U 20061AN  22117.16177631  .00023032  00000+0  11475-2 0  9994
2 46308  97.4539 190.2681 0001067  99.8929 260.2425 15.17568302 90768
SPACEBEE-12             
1 46309U 20061AP  22117.17263771  .00024199  00000+0  11878-2 0  9999
2 46309  97.4544 190.4013 0001118 105.2290 254.9068 15.18079356 90777
SPACEBEE-13             
1 46310U 20061AQ  22116.46851468  .00021531  00000+0  10647-2 0  9998
2 46310  97.4549 189.6575 0001232 103.6325 256.5046 15.17844363 90709
SPACEBEE-14             
1 46311U 20061AR  22117.20189201  .00022672  00000+0  11224-2 0  9990
2 46311  97.4550 190.3648 0001219 103.8413 256.2957 15.17793126 90806
SPACEBEE-34             
1 46933U 20085E   22116.93080338  .00079074  00000+0  20982-2 0  9995
2 46933  97.4233 256.8609 0011984 249.6125 110.3850 15.37935916 79714
SPACEBEE-35             
1 46934U 20085F   22116.93229833  .00073717  00000+0  20150-2 0  9996
2 46934  97.4222 256.7311 0012578 258.1563 101.8270 15.37030476 79700
SPACEBEE-36             
1 46935U 20085G   22116.89675436  .00071140  00000+0  19651-2 0  9998
2 46935  97.4256 256.7062 0013517 257.1396 102.8334 15.36703717 79692
SPACEBEE-37             
1 46936U 20085H   22116.93651650  .00063243  00000+0  18265-2 0  9991
2 46936  97.4208 256.5383 0012522 263.1311  96.8514 15.35359652 79688
SPACEBEE-38             
1 46937U 20085J   22116.95203902  .00058807  00000+0  17090-2 0  9992
2 46937  97.4232 256.4236 0012974 261.7761  98.2023 15.35178923 79687
SPACEBEENZ-3            
1 46938U 20085K   22116.93461106  .00031046  00000+0  10843-2 0  9998
2 46938  97.4283 255.3868 0013294 263.0933  96.8797 15.29439034 79605
SPACEBEENZ-4            
1 46939U 20085L   22116.90326385  .00030868  00000+0  10891-2 0  9999
2 46939  97.4255 255.2769 0013126 265.8626  94.1113 15.29110020 79599
SPACEBEENZ-5            
1 46941U 20085N   22116.86259691  .00028613  00000+0  10166-2 0  9992
2 46941  97.4320 255.1833 0013570 262.6918  97.2783 15.28892698 79581
SPACEBEENZ-6            
1 46942U 20085P   22116.88223036  .00028684  00000+0  10258-2 0  9999
2 46942  97.4262 255.1837 0012943 263.4290  96.5479 15.28684682 79582
SPACEBEE-33             
1 46944U 20085R   22117.15153354  .00051997  00000+0  16138-2 0  9993
2 46944  97.4229 255.7761 0011761 267.1081  92.8969 15.33143510 79663
SPACEBEE-29             
1 46945U 20085S   22116.88673439  .00057621  00000+0  17318-2 0  9995
2 46945  97.4236 255.6850 0011778 271.6019  88.3876 15.34137834 79636
SPACEBEE-32             
1 46946U 20085T   22116.87439530  .00052609  00000+0  16209-2 0  9996
2 46946  97.4213 255.5426 0011915 269.5815  90.4069 15.33371355 79627
SPACEBEE-31             
1 46947U 20085U   22116.92643569  .00054160  00000+0  16562-2 0  9998
2 46947  97.4248 255.6312 0012217 277.9913  81.9946 15.33600106 79638
SPACEBEE-28             
1 46948U 20085V   22116.94031062  .00058725  00000+0  17538-2 0  9995
2 46948  97.4238 255.7699 0012028 272.6235  87.3643 15.34329998 79649
SPACEBEE-30             
1 46949U 20085W   22116.90907827  .00056847  00000+0  17234-2 0  9999
2 46949  97.4254 255.6572 0011628 269.3539  90.6374 15.33869055 79631
SPACEBEE-27             
1 46950U 20085X   22116.87312567  .00064893  00000+0  18766-2 0  9999
2 46950  97.4242 255.8494 0011871 262.0432  97.9465 15.35318322 79647
SPACEBEE-25             
1 46951U 20085Y   22117.26822528  .00071449  00000+0  20086-2 0  9990
2 46951  97.4234 256.4084 0012042 266.2887  93.6997 15.36172080 79713
SPACEBEE-24             
1 46952U 20085Z   22116.92444817  .00060967  00000+0  18077-2 0  9994
2 46952  97.4205 255.7792 0011824 268.3292  91.6603 15.34548849 79642
SPACEBEE-22             
1 46953U 20085AA  22117.12343898  .00072426  00000+0  20245-2 0  9998
2 46953  97.4240 256.2604 0012455 260.0984  99.9419 15.36341502 79698
SPACEBEE-26             
1 46956U 20085AD  22116.92112168  .00060972  00000+0  17997-2 0  9995
2 46956  97.4247 255.7935 0012769 267.5848  92.3942 15.34680930 79561
SPACEBEENZ-2            
1 46957U 20085AE  22116.90412573  .00032499  00000+0  11238-2 0  9992
2 46957  97.4301 255.4287 0013166 260.3922  99.5831 15.29755165 79569
SPACEBEE-39             
1 46958U 20085AF  22116.94753559  .00058757  00000+0  17435-2 0  9999
2 46958  97.4170 256.2556 0012174 264.0092  95.9762 15.34532158 78977
SPACEBEENZ-1            
1 46959U 20085AG  22116.92718590  .00035301  00000+0  12054-2 0  9996
2 46959  97.4227 255.5557 0013054 261.2449  98.7312 15.30146743 79090
SPACEBEE-23             
1 46960U 20085AH  22116.88877068  .00070820  00000+0  20058-2 0  9997
2 46960  97.4216 255.9639 0011883 269.2307  90.7575 15.35944292 78771
SPACEBEE-52             
1 47425U 21006N   22116.39954298  .00031632  00000+0  13778-2 0  9994
2 47425  97.4500 178.7461 0013210  99.8238 260.4490 15.22068093 70489
SPACEBEE-46             
1 47426U 21006P   22116.90512626  .00030105  00000+0  13603-2 0  9998
2 47426  97.4494 178.9569 0013720  97.5286 262.7509 15.20816897 70541
SPACEBEE-47             
1 47427U 21006Q   22117.12838537  .00029485  00000+0  13405-2 0  9995
2 47427  97.4490 179.1110 0013626  97.1198 263.1587 15.20610576 69619
SPACEBEE-59             
1 47428U 21006R   22117.15290948  .00024978  00000+0  11436-2 0  9991
2 47428  97.4490 179.0857 0013831  98.2705 262.0100 15.20401432 69619
SPACEBEE-62             
1 47429U 21006S   22116.44342618  .00010796  00000+0  55245-3 0  9995
2 47429  97.4448 177.4169 0015073  96.2966 263.9984 15.16701684 69457
SPACEBEE-61             
1 47431U 21006U   22116.88354676  .00022614  00000+0  11419-2 0  9999
2 47431  97.4530 177.2461 0007345 110.4298 249.7725 15.17078499 70410
SPACEBEE-49             
1 47432U 21006V   22117.11070983  .00023901  00000+0  12111-2 0  9993
2 47432  97.4536 177.4257 0006899 109.0662 251.1319 15.16947377 69484
SPACEBEE-60             
1 47433U 21006W   22116.38635088  .00019153  00000+0  97037-3 0  9990
2 47433  97.4538 176.7251 0006740 113.5802 246.6140 15.16999350 70339
SPACEBEE-53             
1 47434U 21006X   22116.43423205  .00022807  00000+0  11202-2 0  9992
2 47434  97.4554 177.0089 0006564 113.3946 246.7978 15.18050467 70353
SPACEBEE-63             
1 47442U 21006AF  22117.10878438  .00011213  00000+0  62067-3 0  9993
2 47442  97.4487 176.6468 0007875 108.6220 251.5867 15.13979423 69447
SPACEBEE-50             
1 47443U 21006AG  22116.87700050  .00022570  00000+0  11409-2 0  9992
2 47443  97.4529 177.2471 0007499 110.6111 249.5927 15.17040429 69454
SPACEBEE-51             
1 47444U 21006AH  22116.89210855  .00029578  00000+0  14326-2 0  9990
2 47444  97.4462 177.0831 0007275 113.3994 246.8005 15.18478633 69472
SPACEBEE-48             
1 47447U 21006AL  22117.13398326  .00032513  00000+0  14925-2 0  9999
2 47447  97.4446 178.2046 0011157 101.4465 258.8024 15.20285259 69571
SPACEBEE-40             
1 47449U 21006AN  22117.13518657  .00029072  00000+0  13647-2 0  9998
2 47449  97.4445 178.0522 0011288 100.3476 259.9032 15.19536332 69563
SPACEBEE-41             
1 47451U 21006AQ  22117.14500198  .00028827  00000+0  13555-2 0  9998
2 47451  97.4450 178.0691 0011333 100.9890 259.2620 15.19478548 69566
SPACEBEE-42             
1 47455U 21006AU  22117.16761258  .00026141  00000+0  12351-2 0  9990
2 47455  97.4452 178.0620 0011258 100.9283 259.3218 15.19335111 69568
